[{"OBJECT_NAME":"SITRO-AIS 20","OBJECT_ID":"2024-199Z","EPOCH":"2026-03-09T22:53:15.769536","MEAN_MOTION":14.97385198,"ECCENTRICITY":0.00069441,"INCLINATION":97.3309,"RA_OF_ASC_NODE":274.6556,"ARG_OF_PERICENTER":50.5148,"MEAN_ANOMALY":309.6689,"EPHEMERIS_TYPE":0,"CLASSIFICATION_TYPE":"U","NORAD_CAT_ID":61758,"ELEMENT_SET_NO":999,"REV_AT_EPOCH":12028,"BSTAR":0.00032349417,"MEAN_MOTION_DOT":3.708e-5,"MEAN_MOTION_DDOT":0},{"OBJECT_NAME":"STARLINK-34030","OBJECT_ID":"2025-102J","EPOCH":"2026-03-09T12:34:44.374944","MEAN_MOTION":14.98340563,"ECCENTRICITY":0.00027985,"INCLINATION":70.0016,"RA_OF_ASC_NODE":115.0253,"ARG_OF_PERICENTER":258.7362,"MEAN_ANOMALY":101.3483,"EPHEMERIS_TYPE":0,"CLASSIFICATION_TYPE":"U","NORAD_CAT_ID":64030,"ELEMENT_SET_NO":999,"REV_AT_EPOCH":4593,"BSTAR":0.00033280714,"MEAN_MOTION_DOT":3.881e-5,"MEAN_MOTION_DDOT":0}]
